[{"OBJECT_NAME":"LEMUR-2-DEANANDMAEVE","OBJECT_ID":"2025-276N","EPOCH":"2026-03-08T19:03:57.862944","MEAN_MOTION":15.18340037,"ECCENTRICITY":0.00056277,"INCLINATION":97.4282,"RA_OF_ASC_NODE":143.0037,"ARG_OF_PERICENTER":4.7019,"MEAN_ANOMALY":355.4267,"EPHEMERIS_TYPE":0,"CLASSIFICATION_TYPE":"U","NORAD_CAT_ID":66678,"ELEMENT_SET_NO":999,"REV_AT_EPOCH":1517,"BSTAR":0.00054058789,"MEAN_MOTION_DOT":0.00011044,"MEAN_MOTION_DDOT":0},{"OBJECT_NAME":"CZ-4 DEB","OBJECT_ID":"1990-081AM","EPOCH":"2026-03-09T17:46:45.223680","MEAN_MOTION":15.18516637,"ECCENTRICITY":0.00075172,"INCLINATION":98.1393,"RA_OF_ASC_NODE":114.284,"ARG_OF_PERICENTER":213.3287,"MEAN_ANOMALY":271.4543,"EPHEMERIS_TYPE":0,"CLASSIFICATION_TYPE":"U","NORAD_CAT_ID":20877,"ELEMENT_SET_NO":999,"REV_AT_EPOCH":85586,"BSTAR":0.0032141907,"MEAN_MOTION_DOT":0.00066859,"MEAN_MOTION_DDOT":0}]
